{"type": "FeatureCollection", "features": [{"type": "Feature", "properties": {"norad_id": 25590, "name": "COSMOS 2361", "group": "musson", "lat": -47.86548219669241, "lon": 161.5830422760858, "alt_km": 972.4989461967962, "timestamp": "2025-12-26T18:39:32.550057+00:00", "meta": {"OBJECT_NAME": "COSMOS 2361", "OBJECT_ID": "1998-076A", "EPOCH": "2025-12-26T11:07:19.813728", "MEAN_MOTION": 13.73219025, "ECCENTRICITY": 0.00303747, "INCLINATION": 82.9346, "RA_OF_ASC_NODE": 333.9358, "ARG_OF_PERICENTER": 225.9178, "MEAN_ANOMALY": 250.7401, "EPHEMERIS_TYPE": 0, "CLASSIFICATION_TYPE": "U", "NORAD_CAT_ID": 25590, "ELEMENT_SET_NO": 999, "REV_AT_EPOCH": 35299, "BSTAR": 6.4455721e-05, "MEAN_MOTION_DOT": 7.5e-07, "MEAN_MOTION_DDOT": 0}, "tle": {"line1": "1 25590U 98076A   25360.46342377  .00000075  00000+0  64456-4 0  9993", "line2": "2 25590  82.9346 333.9358 0030374 225.9178 250.7401 13.73219025352990"}}, "geometry": {"type": "Point", "coordinates": [161.5830422760858, -47.86548219669241]}}, {"type": "Feature", "properties": {"norad_id": 26818, "name": "COSMOS 2378", "group": "musson", "lat": -12.49694600876602, "lon": -12.261448631255217, "alt_km": 1013.5987011354955, "timestamp": "2025-12-26T18:39:32.550078+00:00", "meta": {"OBJECT_NAME": "COSMOS 2378", "OBJECT_ID": "2001-023A", "EPOCH": "2025-12-26T10:31:21.747360", "MEAN_MOTION": 13.74143091, "ECCENTRICITY": 0.00332702, "INCLINATION": 82.9272, "RA_OF_ASC_NODE": 349.5666, "ARG_OF_PERICENTER": 166.5607, "MEAN_ANOMALY": 304.8436, "EPHEMERIS_TYPE": 0, "CLASSIFICATION_TYPE": "U", "NORAD_CAT_ID": 26818, "ELEMENT_SET_NO": 999, "REV_AT_EPOCH": 23111, "BSTAR": 4.6609107e-05, "MEAN_MOTION_DOT": 5.9e-07, "MEAN_MOTION_DDOT": 0}, "tle": {"line1": "1 26818U 01023A   25360.43844615  .00000059  00000+0  46609-4 0  9994", "line2": "2 26818  82.9272 349.5666 0033270 166.5607 304.8436 13.74143091231111"}}, "geometry": {"type": "Point", "coordinates": [-12.261448631255217, -12.49694600876602]}}, {"type": "Feature", "properties": {"norad_id": 27436, "name": "COSMOS 2389", "group": "musson", "lat": -64.30910039506148, "lon": 131.4962219565012, "alt_km": 1013.6498664971114, "timestamp": "2025-12-26T18:39:32.550092+00:00", "meta": {"OBJECT_NAME": "COSMOS 2389", "OBJECT_ID": "2002-026A", "EPOCH": "2025-12-26T14:49:00.287616", "MEAN_MOTION": 13.75156114, "ECCENTRICITY": 0.00470002, "INCLINATION": 82.9514, "RA_OF_ASC_NODE": 296.712, "ARG_OF_PERICENTER": 22.8396, "MEAN_ANOMALY": 150.5906, "EPHEMERIS_TYPE": 0, "CLASSIFICATION_TYPE": "U", "NORAD_CAT_ID": 27436, "ELEMENT_SET_NO": 999, "REV_AT_EPOCH": 18339, "BSTAR": 6.5529441e-05, "MEAN_MOTION_DOT": 7.8e-07, "MEAN_MOTION_DDOT": 0}, "tle": {"line1": "1 27436U 02026A   25360.61736444  .00000078  00000+0  65529-4 0  9998", "line2": "2 27436  82.9514 296.7120 0047000  22.8396 150.5906 13.75156114183395"}}, "geometry": {"type": "Point", "coordinates": [131.4962219565012, -64.30910039506148]}}, {"type": "Feature", "properties": {"norad_id": 27818, "name": "COSMOS 2398", "group": "musson", "lat": 57.619342146439756, "lon": -86.3900221383109, "alt_km": 962.3042557769713, "timestamp": "2025-12-26T18:39:32.550103+00:00", "meta": {"OBJECT_NAME": "COSMOS 2398", "OBJECT_ID": "2003-023A", "EPOCH": "2025-12-26T12:13:05.839968", "MEAN_MOTION": 13.72387259, "ECCENTRICITY": 0.00326818, "INCLINATION": 82.9482, "RA_OF_ASC_NODE": 262.552, "ARG_OF_PERICENTER": 75.1312, "MEAN_ANOMALY": 98.2074, "EPHEMERIS_TYPE": 0, "CLASSIFICATION_TYPE": "U", "NORAD_CAT_ID": 27818, "ELEMENT_SET_NO": 999, "REV_AT_EPOCH": 13005, "BSTAR": 6.5388711e-05, "MEAN_MOTION_DOT": 7.5e-07, "MEAN_MOTION_DDOT": 0}, "tle": {"line1": "1 27818U 03023A   25360.50909537  .00000075  00000+0  65389-4 0  9994", "line2": "2 27818  82.9482 262.5520 0032681  75.1312  98.2074 13.72387259130058"}}, "geometry": {"type": "Point", "coordinates": [-86.3900221383109, 57.619342146439756]}}, {"type": "Feature", "properties": {"norad_id": 28380, "name": "COSMOS 2407", "group": "musson", "lat": 82.39079731403193, "lon": -45.17911428144327, "alt_km": 962.6023163057944, "timestamp": "2025-12-26T18:39:32.550114+00:00", "meta": {"OBJECT_NAME": "COSMOS 2407", "OBJECT_ID": "2004-028A", "EPOCH": "2025-12-26T15:00:27.865728", "MEAN_MOTION": 13.76315217, "ECCENTRICITY": 0.00396351, "INCLINATION": 82.9593, "RA_OF_ASC_NODE": 202.6116, "ARG_OF_PERICENTER": 16.8364, "MEAN_ANOMALY": 42.2242, "EPHEMERIS_TYPE": 0, "CLASSIFICATION_TYPE": "U", "NORAD_CAT_ID": 28380, "ELEMENT_SET_NO": 999, "REV_AT_EPOCH": 7614, "BSTAR": 4.5374697e-05, "MEAN_MOTION_DOT": 6e-07, "MEAN_MOTION_DDOT": 0}, "tle": {"line1": "1 28380U 04028A   25360.62532252  .00000060  00000+0  45375-4 0  9991", "line2": "2 28380  82.9593 202.6116 0039635  16.8364  42.2242 13.76315217 76141"}}, "geometry": {"type": "Point", "coordinates": [-45.17911428144327, 82.39079731403193]}}, {"type": "Feature", "properties": {"norad_id": 28521, "name": "COSMOS 2414", "group": "musson", "lat": -40.922320776360024, "lon": 0.20410347314723268, "alt_km": 957.7772161471294, "timestamp": "2025-12-26T18:39:32.550125+00:00", "meta": {"OBJECT_NAME": "COSMOS 2414", "OBJECT_ID": "2005-002A", "EPOCH": "2025-12-26T10:40:47.254368", "MEAN_MOTION": 13.87904644, "ECCENTRICITY": 0.00414459, "INCLINATION": 82.9488, "RA_OF_ASC_NODE": 174.2961, "ARG_OF_PERICENTER": 101.7241, "MEAN_ANOMALY": 258.8577, "EPHEMERIS_TYPE": 0, "CLASSIFICATION_TYPE": "U", "NORAD_CAT_ID": 28521, "ELEMENT_SET_NO": 999, "REV_AT_EPOCH": 5985, "BSTAR": 4.7553559e-05, "MEAN_MOTION_DOT": 7.3e-07, "MEAN_MOTION_DDOT": 0}, "tle": {"line1": "1 28521U 05002A   25360.44499137  .00000073  00000+0  47554-4 0  9990", "line2": "2 28521  82.9488 174.2961 0041445 101.7241 258.8577 13.87904644 59858"}}, "geometry": {"type": "Point", "coordinates": [0.20410347314723268, -40.922320776360024]}}, {"type": "Feature", "properties": {"norad_id": 32052, "name": "COSMOS 2429", "group": "musson", "lat": 70.2494749315033, "lon": -6.9726284709750646, "alt_km": 965.6928314180659, "timestamp": "2025-12-26T18:39:32.550136+00:00", "meta": {"OBJECT_NAME": "COSMOS 2429", "OBJECT_ID": "2007-038A", "EPOCH": "2025-12-26T11:19:46.862688", "MEAN_MOTION": 13.75150735, "ECCENTRICITY": 0.00384166, "INCLINATION": 82.9809, "RA_OF_ASC_NODE": 333.185, "ARG_OF_PERICENTER": 359.9977, "MEAN_ANOMALY": 0.1172, "EPHEMERIS_TYPE": 0, "CLASSIFICATION_TYPE": "U", "NORAD_CAT_ID": 32052, "ELEMENT_SET_NO": 999, "REV_AT_EPOCH": 91791, "BSTAR": 5.6621046e-05, "MEAN_MOTION_DOT": 7e-07, "MEAN_MOTION_DDOT": 0}, "tle": {"line1": "1 32052U 07038A   25360.47207017  .00000070  00000+0  56621-4 0  9994", "line2": "2 32052  82.9809 333.1850 0038416 359.9977   0.1172 13.75150735917919"}}, "geometry": {"type": "Point", "coordinates": [-6.9726284709750646, 70.2494749315033]}}, {"type": "Feature", "properties": {"norad_id": 35635, "name": "COSMOS 2454", "group": "musson", "lat": 12.927722754713974, "lon": 159.62999651276044, "alt_km": 916.5329896779967, "timestamp": "2025-12-26T18:39:32.550163+00:00", "meta": {"OBJECT_NAME": "COSMOS 2454", "OBJECT_ID": "2009-039A", "EPOCH": "2025-12-26T13:45:06.902784", "MEAN_MOTION": 13.89930347, "ECCENTRICITY": 0.00199208, "INCLINATION": 82.956, "RA_OF_ASC_NODE": 158.1587, "ARG_OF_PERICENTER": 36.3895, "MEAN_ANOMALY": 34.3382, "EPHEMERIS_TYPE": 0, "CLASSIFICATION_TYPE": "U", "NORAD_CAT_ID": 35635, "ELEMENT_SET_NO": 999, "REV_AT_EPOCH": 83342, "BSTAR": 5.6822101e-05, "MEAN_MOTION_DOT": 8.6e-07, "MEAN_MOTION_DDOT": 0}, "tle": {"line1": "1 35635U 09039A   25360.57299656  .00000086  00000+0  56822-4 0  9998", "line2": "2 35635  82.9560 158.1587 0019920  36.3895  34.3382 13.89930347833424"}}, "geometry": {"type": "Point", "coordinates": [159.62999651276044, 12.927722754713974]}}, {"type": "Feature", "properties": {"norad_id": 36519, "name": "COSMOS 2463", "group": "musson", "lat": -30.5090736164076, "lon": -159.4284836320598, "alt_km": 979.0340485126735, "timestamp": "2025-12-26T18:39:32.550177+00:00", "meta": {"OBJECT_NAME": "COSMOS 2463", "OBJECT_ID": "2010-017A", "EPOCH": "2025-12-26T14:43:53.598720", "MEAN_MOTION": 13.71650343, "ECCENTRICITY": 0.0034842, "INCLINATION": 82.9603, "RA_OF_ASC_NODE": 16.5163, "ARG_OF_PERICENTER": 248.1364, "MEAN_ANOMALY": 235.1487, "EPHEMERIS_TYPE": 0, "CLASSIFICATION_TYPE": "U", "NORAD_CAT_ID": 36519, "ELEMENT_SET_NO": 999, "REV_AT_EPOCH": 78427, "BSTAR": 3.8217363e-05, "MEAN_MOTION_DOT": 4.9e-07, "MEAN_MOTION_DDOT": 0}, "tle": {"line1": "1 36519U 10017A   25360.61381480  .00000049  00000+0  38217-4 0  9997", "line2": "2 36519  82.9603  16.5163 0034842 248.1364 235.1487 13.71650343784276"}}, "geometry": {"type": "Point", "coordinates": [-159.4284836320598, -30.5090736164076]}}]}